[{"OBJECT_NAME":"TIANMU-1 19","OBJECT_ID":"2023-208A","EPOCH":"2026-03-09T22:13:36.801696","MEAN_MOTION":15.2984143,"ECCENTRICITY":0.00039292,"INCLINATION":97.4383,"RA_OF_ASC_NODE":184.9132,"ARG_OF_PERICENTER":316.2611,"MEAN_ANOMALY":43.8317,"EPHEMERIS_TYPE":0,"CLASSIFICATION_TYPE":"U","NORAD_CAT_ID":58660,"ELEMENT_SET_NO":999,"REV_AT_EPOCH":12214,"BSTAR":0.00040995676,"MEAN_MOTION_DOT":0.00011779,"MEAN_MOTION_DDOT":0},{"OBJECT_NAME":"STARLINK-33852","OBJECT_ID":"2025-083L","EPOCH":"2026-03-09T03:56:16.930176","MEAN_MOTION":15.27602555,"ECCENTRICITY":0.00015254,"INCLINATION":43.0055,"RA_OF_ASC_NODE":8.4238,"ARG_OF_PERICENTER":247.8898,"MEAN_ANOMALY":112.1791,"EPHEMERIS_TYPE":0,"CLASSIFICATION_TYPE":"U","NORAD_CAT_ID":63644,"ELEMENT_SET_NO":999,"REV_AT_EPOCH":5001,"BSTAR":0.00096971681,"MEAN_MOTION_DOT":0.00026537,"MEAN_MOTION_DDOT":0}]
